NORAD_CAT_ID,OBJECT_NAME,OBJECT_TYPE,EPOCH,MEAN_MOTION,ECCENTRICITY,INCLINATION,RA_OF_ASC_NODE,ARG_OF_PERICENTER,MEAN_ANOMALY,BSTAR,MEAN_MOTION_DOT,MEAN_MOTION_DDOT,TLE_LINE0,TLE_LINE1,TLE_LINE2,SEMIMAJOR_AXIS,PERIOD,APOGEE,PERIGEE,DECAYED
53416.0,STARLINK-4480,PAYLOAD,2023-04-12 12:24:24,15.08839777,0.0001558,53.2198,202.3523,97.7999,262.3171,-4.0922e-05,-9.39e-06,0.0,0 STARLINK-4480,1 53416U 22097AE  23102.51695346 -.00000939  00000-0 -40922-4 0  9990,2 53416  53.2198 202.3523 0001558  97.7999 262.3171 15.08839777 37811,6917.881,95.438,540.824,538.668,0.0
53416.0,STARLINK-4480,PAYLOAD,2023-04-13 05:53:39,15.08839283,0.0001414,53.2184,199.0808,84.6731,275.4423,1.6588e-05,-2.4e-07,0.0,0 STARLINK-4480,1 53416U 22097AE  23103.24559185 -.00000024  00000-0  16588-4 0  9996,2 53416  53.2184 199.0808 0001414  84.6731 275.4423 15.08839283 38384,6917.883,95.438,540.726,538.769,0.0
53416.0,STARLINK-4480,PAYLOAD,2023-04-14 05:44:26,15.08835494,0.0001568,53.2178,194.621,83.149,276.9681,8.6787e-05,1.093e-05,0.0,0 STARLINK-4480,1 53416U 22097AE  23104.23919454  .00001093  00000-0  86787-4 0  9999,2 53416  53.2178 194.6210 0001568  83.1490 276.9681 15.08835494 38079,6917.894,95.438,540.844,538.674,0.0
53416.0,STARLINK-4480,PAYLOAD,2023-04-14 12:05:59,15.08824872,0.0001459,53.2173,193.4316,78.9948,281.1208,0.0002461,3.629e-05,0.0,0 STARLINK-4480,1 53416U 22097AE  23104.50415818  .00003629  00000-0  24610-3 0  9997,2 53416  53.2173 193.4316 0001459  78.9948 281.1208 15.08824872 38573,6917.927,95.439,540.801,538.782,0.0
53416.0,STARLINK-4480,PAYLOAD,2023-04-14 23:13:40,15.08843951,0.0001636,53.2178,191.35,76.857,283.2604,0.00010924,1.451e-05,0.0,0 STARLINK-4480,1 53416U 22097AE  23104.96783028  .00001451  00000-0  10924-3 0  9992,2 53416  53.2178 191.3500 0001636  76.8570 283.2604 15.08843951 38184,6917.868,95.437,540.865,538.602,0.0
53416.0,STARLINK-4480,PAYLOAD,2023-04-15 11:56:45,15.08843241,0.0001601,53.2177,188.9711,77.5362,282.5809,0.0001244,1.693e-05,0.0,0 STARLINK-4480,1 53416U 22097AE  23105.49775046  .00001693  00000-0  12440-3 0  9995,2 53416  53.2177 188.9711 0001601  77.5362 282.5809 15.08843241 38729,6917.87,95.437,540.843,538.628,0.0
53416.0,STARLINK-4480,PAYLOAD,2023-04-16 05:26:00,15.08837064,0.0001614,53.2142,185.6982,77.8466,282.2707,7.6372e-05,9.28e-06,0.0,0 STARLINK-4480,1 53416U 22097AE  23106.22639584  .00000928  00000-0  76372-4 0  9998,2 53416  53.2142 185.6982 0001614  77.8466 282.2707 15.08837064 38378,6917.889,95.438,540.871,538.638,0.0
53416.0,STARLINK-4480,PAYLOAD,2023-04-16 11:47:33,15.08839054,0.0001296,53.216,184.5067,93.6332,266.4808,1.6676e-05,-2.2e-07,0.0,0 STARLINK-4480,1 53416U 22097AE  23106.49135532 -.00000022  00000-0  16676-4 0  9998,2 53416  53.2160 184.5067 0001296  93.6332 266.4808 15.08839054 38876,6917.883,95.438,540.645,538.852,0.0
53416.0,STARLINK-4480,PAYLOAD,2023-04-17 13:13:43,15.08840495,0.0001616,53.2177,179.7534,69.0651,291.0514,4.0776e-05,3.61e-06,0.0,0 STARLINK-4480,1 53416U 22097AE  23107.55119844  .00000361  00000-0  40776-4 0  9997,2 53416  53.2177 179.7534 0001616  69.0651 291.0514 15.08840495 38572,6917.879,95.438,540.862,538.626,0.0
53416.0,STARLINK-4480,PAYLOAD,2023-04-17 21:10:39,15.0884161,0.0001183,53.2159,178.263,74.0674,286.0448,-2.535e-05,-6.91e-06,0.0,0 STARLINK-4480,1 53416U 22097AE  23107.88239772 -.00000691  00000-0 -25350-4 0  9995,2 53416  53.2159 178.2630 0001183  74.0674 286.0448 15.08841610 39080,6917.875,95.437,540.559,538.922,0.0
53416.0,STARLINK-4480,PAYLOAD,2023-04-18 09:53:44,15.08836532,0.0001224,53.215,175.8842,80.0497,280.0633,0.00017016,2.421e-05,0.0,0 STARLINK-4480,1 53416U 22097AE  23108.41231907  .00002421  00000-0  17016-3 0  9997,2 53416  53.2150 175.8842 0001224  80.0497 280.0633 15.08836532 39161,6917.891,95.438,540.603,538.909,0.0
53416.0,STARLINK-4480,PAYLOAD,2023-04-18 21:01:26,15.08838701,0.000122,53.215,173.8026,86.6817,273.4315,0.00014108,1.958e-05,0.0,0 STARLINK-4480,1 53416U 22097AE  23108.87599912  .00001958  00000-0  14108-3 0  9993,2 53416  53.2150 173.8026 0001220  86.6817 273.4315 15.08838701 38776,6917.884,95.438,540.593,538.905,0.0
53416.0,STARLINK-4480,PAYLOAD,2023-04-19 12:55:17,15.08844774,0.0001252,53.217,170.8318,86.7979,273.3156,0.0001075,1.424e-05,0.0,0 STARLINK-4480,1 53416U 22097AE  23109.53839802  .00001424  00000-0  10750-3 0  9999,2 53416  53.2170 170.8318 0001252  86.7979 273.3156 15.08844774 39336,6917.866,95.437,540.597,538.865,0.0
53416.0,STARLINK-4480,PAYLOAD,2023-04-19 20:52:13,15.0884134,0.0001128,53.2159,169.3424,88.0229,272.0893,2.0533e-05,3.9e-07,0.0,0 STARLINK-4480,1 53416U 22097AE  23109.86960097  .00000039  00000-0  20533-4 0  9998,2 53416  53.2159 169.3424 0001128  88.0229 272.0893 15.08841340 39384,6917.876,95.437,540.522,538.961,0.0
53416.0,STARLINK-4480,PAYLOAD,2023-04-20 04:49:08,15.08851878,5.24e-05,53.2174,167.8563,113.618,246.4867,-0.00022456,-3.861e-05,0.0,0 STARLINK-4480,1 53416U 22097AE  23110.20079749 -.00003861  00000-0 -22456-3 0  9996,2 53416  53.2174 167.8563 0000524 113.6180 246.4867 15.08851878 38975,6917.844,95.437,540.072,539.347,0.0
53416.0,STARLINK-4480,PAYLOAD,2023-04-20 07:59:55,15.08836291,0.0001293,53.2176,167.2618,98.4635,261.6503,1.2159e-05,-9.4e-07,0.0,0 STARLINK-4480,1 53416U 22097AE  23110.33328626 -.00000094  00000-0  12159-4 0  9995,2 53416  53.2176 167.2618 0001293  98.4635 261.6503 15.08836291 39453,6917.892,95.438,540.651,538.862,0.0
53416.0,STARLINK-4480,PAYLOAD,2023-04-20 11:10:42,15.08837613,0.0001232,53.2174,166.667,95.3841,264.7292,1.1921e-05,-9.8e-07,0.0,0 STARLINK-4480,1 53416U 22097AE  23110.46576538 -.00000098  00000-0  11921-4 0  9996,2 53416  53.2174 166.6670 0001232  95.3841 264.7292 15.08837613 39470,6917.888,95.438,540.605,538.9,0.0
53416.0,STARLINK-4480,PAYLOAD,2023-04-21 20:33:47,15.0884077,0.0001068,53.2163,160.4217,93.3783,266.7332,3.9862e-05,3.47e-06,0.0,0 STARLINK-4480,1 53416U 22097AE  23111.85680544  .00000347  00000-0  39862-4 0  9993,2 53416  53.2163 160.4217 0001068  93.3783 266.7332 15.08840770 39225,6917.878,95.438,540.482,539.004,0.0
53416.0,STARLINK-4480,PAYLOAD,2023-04-22 20:24:34,15.08842861,9.04e-05,53.215,155.9615,81.7943,278.3151,0.00013701,1.894e-05,0.0,0 STARLINK-4480,1 53416U 22097AE  23112.85040065  .00001894  00000-0  13701-3 0  9993,2 53416  53.2150 155.9615 0000904  81.7943 278.3151 15.08842861 39837,6917.872,95.437,540.362,539.111,0.0
53416.0,STARLINK-4480,PAYLOAD,2023-04-23 12:18:26,15.0883925,9.82e-05,53.2151,152.989,76.9553,283.1549,3.2599e-05,2.31e-06,0.0,0 STARLINK-4480,1 53416U 22097AE  23113.51280662  .00000231  00000-0  32599-4 0  9997,2 53416  53.2151 152.9890 0000982  76.9553 283.1549 15.08839250 39933,6917.883,95.438,540.427,539.068,0.0
53416.0,STARLINK-4480,PAYLOAD,2023-04-25 11:59:59,15.08845551,9.7e-05,53.2154,144.0654,97.1074,263.0028,6.9764e-05,8.23e-06,0.0,0 STARLINK-4480,1 53416U 22097AE  23115.49999727  .00000823  00000-0  69764-4 0  9996,2 53416  53.2154 144.0654 0000970  97.1074 263.0028 15.08845551 40231,6917.863,95.437,540.399,539.057,0.0
53416.0,STARLINK-4480,PAYLOAD,2023-04-26 11:50:48,15.0883155,0.0001054,53.2157,139.6048,91.6623,268.449,-4.2037e-05,-9.57e-06,0.0,0 STARLINK-4480,1 53416U 22097AE  23116.49361394 -.00000957  00000-0 -42037-4 0  9994,2 53416  53.2157 139.6048 0001054  91.6623 268.4490 15.08831550 40386,6917.906,95.438,540.5,539.042,0.0
53416.0,STARLINK-4480,PAYLOAD,2023-04-26 21:23:06,15.08835415,0.0001041,53.2157,137.8208,91.2628,268.8483,-1.103e-05,-4.63e-06,0.0,0 STARLINK-4480,1 53416U 22097AE  23116.89105165 -.00000463  00000-0 -11030-4 0  9991,2 53416  53.2157 137.8208 0001041  91.2628 268.8483 15.08835415 40448,6917.894,95.438,540.48,539.039,0.0
53416.0,STARLINK-4480,PAYLOAD,2023-04-27 05:20:02,15.08837997,0.000106,53.2156,136.334,89.8143,270.297,1.1151e-05,-1.1e-06,0.0,0 STARLINK-4480,1 53416U 22097AE  23117.22225004 -.00000110  00000-0  11151-4 0  9996,2 53416  53.2156 136.3340 0001060  89.8143 270.2970 15.08837997 40034,6917.887,95.438,540.485,539.018,0.0
53416.0,STARLINK-4480,PAYLOAD,2023-04-27 11:41:34,15.0884069,0.000107,53.2155,135.1444,89.956,270.1555,3.3459e-05,2.45e-06,0.0,0 STARLINK-4480,1 53416U 22097AE  23117.48720782  .00000245  00000-0  33459-4 0  9990,2 53416  53.2155 135.1444 0001070  89.9560 270.1555 15.08840690 40537,6917.878,95.438,540.483,539.003,0.0
53416.0,STARLINK-4480,PAYLOAD,2023-04-28 09:56:58,15.08838347,0.0001098,53.2153,130.9812,88.042,272.0698,0.00015095,2.115e-05,0.0,0 STARLINK-4480,1 53416U 22097AE  23118.41456779  .00002115  00000-0  15095-3 0  9999,2 53416  53.2153 130.9812 0001098  88.0420 272.0698 15.08838347 40212,6917.885,95.438,540.51,538.991,0.0
53416.0,STARLINK-4480,PAYLOAD,2023-04-29 06:36:59,15.0883689,0.0001143,53.2153,127.1153,86.877,273.2353,3.0352e-05,1.95e-06,0.0,0 STARLINK-4480,1 53416U 22097AE  23119.27569323  .00000195  00000-0  30352-4 0  9994,2 53416  53.2153 127.1153 0001143  86.8770 273.2353 15.08836890 40349,6917.89,95.438,540.546,538.964,0.0
53416.0,STARLINK-4480,PAYLOAD,2023-04-29 09:47:45,15.08839968,0.0001192,53.2155,126.5203,86.2563,273.8566,3.8849e-05,3.3e-06,0.0,0 STARLINK-4480,1 53416U 22097AE  23119.40817105  .00000330  00000-0  38849-4 0  9993,2 53416  53.2155 126.5203 0001192  86.2563 273.8566 15.08839968 40822,6917.88,95.438,540.57,538.921,0.0
53416.0,STARLINK-4480,PAYLOAD,2023-04-30 09:38:32,15.08844724,0.0001256,53.2152,122.0604,84.8339,275.2796,4.3273e-05,4.01e-06,0.0,0 STARLINK-4480,1 53416U 22097AE  23120.40176648  .00000401  00000-0  43273-4 0  9991,2 53416  53.2152 122.0604 0001256  84.8339 275.2796 15.08844724 40514,6917.866,95.437,540.6,538.862,0.0
53416.0,STARLINK-4480,PAYLOAD,2023-05-01 06:18:33,15.08838624,0.0001296,53.2155,118.1937,93.1308,266.9832,3.1509e-05,2.14e-06,0.0,0 STARLINK-4480,1 53416U 22097AE  23121.26289034  .00000214  00000-0  31509-4 0  9991,2 53416  53.2155 118.1937 0001296  93.1308 266.9832 15.08838624 40649,6917.885,95.438,540.646,538.853,0.0
